start=new Date('2022-01-02T00:00:00.000Z').valueOf();
sats=[{"CENTER_NAME":"EARTH","GP_ID":"192869155","ARG_OF_PERICENTER":"63.3818","NORAD_CAT_ID":"46370","MEAN_ANOMALY":"296.7322","TLE_LINE2":"2 46370  53.0565  17.9881 0001478  63.3818 296.7322 15.06382248 74224","EPOCH":"2022-01-01T06:23:58.248096","MEAN_MOTION_DDOT":"0.0000000000000","OBJECT_ID":"2020-062AX","CLASSIFICATION_TYPE":"U","BSTAR":"0.00003708500000","PERIOD":"95.593","TIME_SYSTEM":"UTC","MEAN_MOTION":"15.06382248","REF_FRAME":"TEME","INCLINATION":"53.0565","ELEMENT_SET_NO":"999","RCS_SIZE":"LARGE","SEMIMAJOR_AXIS":"6925.403","FILE":"3255244","COUNTRY_CODE":"US","APOAPSIS":"548.292","OBJECT_TYPE":"PAYLOAD","DECAY_DATE":null,"RA_OF_ASC_NODE":"17.9881","MEAN_MOTION_DOT":"0.00000271","PERIAPSIS":"546.244","REV_AT_EPOCH":"7422","TLE_LINE1":"1 46370U 20062AX  22001.26664639  .00000271  00000-0  37085-4 0  9994","EPHEMERIS_TYPE":"0","SITE":"AFETR","MEAN_ELEMENT_THEORY":"SGP4","OBJECT_NAME":"STARLINK-1670","ECCENTRICITY":"0.00014780","LAUNCH_DATE":"2020-09-03"},{"SITE":"AFETR","MEAN_ELEMENT_THEORY":"SGP4","OBJECT_NAME":"STARLINK-1688","ECCENTRICITY":"0.00013700","LAUNCH_DATE":"2020-09-03","SEMIMAJOR_AXIS":"6925.383","FILE":"3255244","APOAPSIS":"548.196","COUNTRY_CODE":"US","OBJECT_TYPE":"PAYLOAD","DECAY_DATE":null,"RA_OF_ASC_NODE":"16.8199","MEAN_MOTION_DOT":"0.00001504","REV_AT_EPOCH":"7426","PERIAPSIS":"546.299","TLE_LINE1":"1 46371U 20062AY  22001.52466032  .00001504  00000-0  11985-3 0  9991","EPHEMERIS_TYPE":"0","BSTAR":"0.00011985000000","PERIOD":"95.593","TIME_SYSTEM":"UTC","MEAN_MOTION":"15.06388925","REF_FRAME":"TEME","INCLINATION":"53.0544","ELEMENT_SET_NO":"999","RCS_SIZE":"LARGE","CENTER_NAME":"EARTH","GP_ID":"192868413","ARG_OF_PERICENTER":"80.0938","NORAD_CAT_ID":"46371","MEAN_ANOMALY":"280.0206","TLE_LINE2":"2 46371  53.0544  16.8199 0001370  80.0938 280.0206 15.06388925 74261","EPOCH":"2022-01-01T12:35:30.651648","MEAN_MOTION_DDOT":"0.0000000000000","OBJECT_ID":"2020-062AY","CLASSIFICATION_TYPE":"U"},{"REV_AT_EPOCH":"7396","PERIAPSIS":"546.329","MEAN_MOTION_DOT":"0.00000757","RA_OF_ASC_NODE":"37.3688","EPHEMERIS_TYPE":"0","TLE_LINE1":"1 46372U 20062AZ  22001.40118022  .00000757  00000-0  69711-4 0  9992","FILE":"3255244","SEMIMAJOR_AXIS":"6925.376","DECAY_DATE":null,"OBJECT_TYPE":"PAYLOAD","COUNTRY_CODE":"US","APOAPSIS":"548.154","ECCENTRICITY":"0.00013180","LAUNCH_DATE":"2020-09-03","MEAN_ELEMENT_THEORY":"SGP4","SITE":"AFETR","OBJECT_NAME":"STARLINK-1689","OBJECT_ID":"2020-062AZ","MEAN_MOTION_DDOT":"0.0000000000000","EPOCH":"2022-01-01T09:37:41.971008","CLASSIFICATION_TYPE":"U","ARG_OF_PERICENTER":"81.8680","GP_ID":"192868663","CENTER_NAME":"EARTH","TLE_LINE2":"2 46372  53.0550  37.3688 0001318  81.8680 278.2459 15.06390948 73968","MEAN_ANOMALY":"278.2459","NORAD_CAT_ID":"46372","INCLINATION":"53.0550","REF_FRAME":"TEME","RCS_SIZE":"LARGE","ELEMENT_SET_NO":"999","TIME_SYSTEM":"UTC","BSTAR":"0.00006971100000","PERIOD":"95.593","MEAN_MOTION":"15.06390948"},{"ECCENTRICITY":"0.00024110","LAUNCH_DATE":"2020-09-03","MEAN_ELEMENT_THEORY":"SGP4","SITE":"AFETR","OBJECT_NAME":"STARLINK-1711","MEAN_MOTION_DOT":"-0.00001265","REV_AT_EPOCH":"7494","PERIAPSIS":"545.559","RA_OF_ASC_NODE":"327.3169","EPHEMERIS_TYPE":"0","TLE_LINE1":"1 46374U 20062BB  22001.41499901 -.00001265  00000-0 -66013-4 0  9992","FILE":"3255244","SEMIMAJOR_AXIS":"6925.364","DECAY_DATE":null,"COUNTRY_CODE":"US","APOAPSIS":"548.898","OBJECT_TYPE":"PAYLOAD","INCLINATION":"53.0550","REF_FRAME":"TEME","RCS_SIZE":"LARGE","ELEMENT_SET_NO":"999","BSTAR":"-0.00006601300000","PERIOD":"95.592","TIME_SYSTEM":"UTC","MEAN_MOTION":"15.06395099","OBJECT_ID":"2020-062BB","EPOCH":"2022-01-01T09:57:35.914464","MEAN_MOTION_DDOT":"0.0000000000000","CLASSIFICATION_TYPE":"U","ARG_OF_PERICENTER":"161.7868","CENTER_NAME":"EARTH","GP_ID":"192868914","MEAN_ANOMALY":"198.3207","TLE_LINE2":"2 46374  53.0550 327.3169 0002411 161.7868 198.3207 15.06395099 74941","NORAD_CAT_ID":"46374"},{"TIME_SYSTEM":"UTC","BSTAR":"0.00012438000000","PERIOD":"95.593","MEAN_MOTION":"15.06391006","REF_FRAME":"TEME","INCLINATION":"53.0542","ELEMENT_SET_NO":"999","RCS_SIZE":"LARGE","GP_ID":"192869656","CENTER_NAME":"EARTH","ARG_OF_PERICENTER":"57.5705","NORAD_CAT_ID":"46375","TLE_LINE2":"2 46375  53.0542 352.5407 0001712  57.5705 302.5449 15.06391006 74584","MEAN_ANOMALY":"302.5449","MEAN_MOTION_DDOT":"0.0000000000000","EPOCH":"2022-01-01T08:42:37.906272","OBJECT_ID":"2020-062BC","CLASSIFICATION_TYPE":"U","SITE":"AFETR","MEAN_ELEMENT_THEORY":"SGP4","OBJECT_NAME":"STARLINK-1724","ECCENTRICITY":"0.00017120","LAUNCH_DATE":"2020-09-03","SEMIMAJOR_AXIS":"6925.376","FILE":"3255244","OBJECT_TYPE":"PAYLOAD","COUNTRY_CODE":"US","APOAPSIS":"548.427","DECAY_DATE":null,"RA_OF_ASC_NODE":"352.5407","REV_AT_EPOCH":"7458","PERIAPSIS":"546.055","MEAN_MOTION_DOT":"0.00001571","TLE_LINE1":"1 46375U 20062BC  22001.36293873  .00001571  00000-0  12438-3 0  9996","EPHEMERIS_TYPE":"0"},{"DECAY_DATE":null,"COUNTRY_CODE":"US","APOAPSIS":"548.503","OBJECT_TYPE":"PAYLOAD","FILE":"3255244","SEMIMAJOR_AXIS":"6925.406","EPHEMERIS_TYPE":"0","TLE_LINE1":"1 46376U 20062BD  22001.24499255  .00000861  00000-0  76727-4 0  9999","MEAN_MOTION_DOT":"0.00000861","REV_AT_EPOCH":"7456","PERIAPSIS":"546.039","RA_OF_ASC_NODE":"353.0722","OBJECT_NAME":"STARLINK-1742","MEAN_ELEMENT_THEORY":"SGP4","SITE":"AFETR","LAUNCH_DATE":"2020-09-03","ECCENTRICITY":"0.00017790","MEAN_ANOMALY":"299.4961","TLE_LINE2":"2 46376  53.0546 353.0722 0001779  60.6205 299.4961 15.06381288 74560","NORAD_CAT_ID":"46376","ARG_OF_PERICENTER":"60.6205","CENTER_NAME":"EARTH","GP_ID":"192867913","CLASSIFICATION_TYPE":"U","OBJECT_ID":"2020-062BD","EPOCH":"2022-01-01T05:52:47.356320","MEAN_MOTION_DDOT":"0.0000000000000","MEAN_MOTION":"15.06381288","PERIOD":"95.593","BSTAR":"0.00007672700000","TIME_SYSTEM":"UTC","RCS_SIZE":"LARGE","ELEMENT_SET_NO":"999","INCLINATION":"53.0546","REF_FRAME":"TEME"},{"LAUNCH_DATE":"2020-09-03","ECCENTRICITY":"0.00014360","OBJECT_NAME":"STARLINK-1751","MEAN_ELEMENT_THEORY":"SGP4","SITE":"AFETR","EPHEMERIS_TYPE":"0","TLE_LINE1":"1 46378U 20062BF  22001.76952552  .00035762  11588-4  12242-3 0  9998","REV_AT_EPOCH":"7486","PERIAPSIS":"298.930","MEAN_MOTION_DOT":"0.00035762","RA_OF_ASC_NODE":"334.8983","DECAY_DATE":null,"OBJECT_TYPE":"PAYLOAD","APOAPSIS":"300.848","COUNTRY_CODE":"US","FILE":"3255246","SEMIMAJOR_AXIS":"6678.024","RCS_SIZE":"LARGE","ELEMENT_SET_NO":"999","INCLINATION":"53.0533","REF_FRAME":"TEME","MEAN_MOTION":"15.90855586","TIME_SYSTEM":"UTC","PERIOD":"90.517","BSTAR":"0.00012242000000","CLASSIFICATION_TYPE":"U","OBJECT_ID":"2020-062BF","MEAN_MOTION_DDOT":"0.0000115880000","EPOCH":"2022-01-01T18:28:07.004928","TLE_LINE2":"2 46378  53.0533 334.8983 0001436  41.6216 318.4919 15.90855586 74863","MEAN_ANOMALY":"318.4919","NORAD_CAT_ID":"46378","ARG_OF_PERICENTER":"41.6216","GP_ID":"192893082","CENTER_NAME":"EARTH"},{"ECCENTRICITY":"0.00014830","LAUNCH_DATE":"2020-09-03","MEAN_ELEMENT_THEORY":"SGP4","SITE":"AFETR","OBJECT_NAME":"STARLINK-1758","PERIAPSIS":"546.202","REV_AT_EPOCH":"7426","MEAN_MOTION_DOT":"0.00001011","RA_OF_ASC_NODE":"16.7290","EPHEMERIS_TYPE":"0","TLE_LINE1":"1 46380U 20062BH  22001.54308919  .00001011  00000-0  86753-4 0  9991","FILE":"3255244","SEMIMAJOR_AXIS":"6925.364","DECAY_DATE":null,"OBJECT_TYPE":"PAYLOAD","APOAPSIS":"548.256","COUNTRY_CODE":"US","INCLINATION":"53.0555","REF_FRAME":"TEME","RCS_SIZE":"LARGE","ELEMENT_SET_NO":"999","TIME_SYSTEM":"UTC","BSTAR":"0.00008675300000","PERIOD":"95.592","MEAN_MOTION":"15.06395044","OBJECT_ID":"2020-062BH","MEAN_MOTION_DDOT":"0.0000000000000","EPOCH":"2022-01-01T13:02:02.906016","CLASSIFICATION_TYPE":"U","ARG_OF_PERICENTER":"70.2766","GP_ID":"192869415","CENTER_NAME":"EARTH","TLE_LINE2":"2 46380  53.0555  16.7290 0001483  70.2766 289.8383 15.06395044 74262","MEAN_ANOMALY":"289.8383","NORAD_CAT_ID":"46380"},{"OBJECT_ID":"2020-062BK","MEAN_MOTION_DDOT":"0.0000000000000","EPOCH":"2022-01-01T22:09:24.371136","CLASSIFICATION_TYPE":"U","ARG_OF_PERICENTER":"70.5579","GP_ID":"192894084","CENTER_NAME":"EARTH","TLE_LINE2":"2 46382  53.0562 350.0415 0001758  70.5579 289.5599 15.06397348 74675","MEAN_ANOMALY":"289.5599","NORAD_CAT_ID":"46382","INCLINATION":"53.0562","REF_FRAME":"TEME","RCS_SIZE":"LARGE","ELEMENT_SET_NO":"999","TIME_SYSTEM":"UTC","PERIOD":"95.592","BSTAR":"0.00006057000000","MEAN_MOTION":"15.06397348","PERIAPSIS":"546.004","REV_AT_EPOCH":"7467","MEAN_MOTION_DOT":"0.00000621","RA_OF_ASC_NODE":"350.0415","EPHEMERIS_TYPE":"0","TLE_LINE1":"1 46382U 20062BK  22001.92319874  .00000621  00000-0  60570-4 0  9992","FILE":"3255246","SEMIMAJOR_AXIS":"6925.357","DECAY_DATE":null,"OBJECT_TYPE":"PAYLOAD","APOAPSIS":"548.439","COUNTRY_CODE":"US","ECCENTRICITY":"0.00017580","LAUNCH_DATE":"2020-09-03","MEAN_ELEMENT_THEORY":"SGP4","SITE":"AFETR","OBJECT_NAME":"STARLINK-1769"},{"EPHEMERIS_TYPE":"0","TLE_LINE1":"1 46383U 20062BL  22001.31271243 -.00000679  00000-0 -26714-4 0  9990","PERIAPSIS":"546.291","REV_AT_EPOCH":"7394","MEAN_MOTION_DOT":"-0.00000679","RA_OF_ASC_NODE":"37.7723","DECAY_DATE":null,"OBJECT_TYPE":"PAYLOAD","COUNTRY_CODE":"US","APOAPSIS":"548.171","FILE":"3255244","SEMIMAJOR_AXIS":"6925.366","LAUNCH_DATE":"2020-09-03","ECCENTRICITY":"0.00013570","OBJECT_NAME":"STARLINK-1770","MEAN_ELEMENT_THEORY":"SGP4","SITE":"AFETR","CLASSIFICATION_TYPE":"U","OBJECT_ID":"2020-062BL","MEAN_MOTION_DDOT":"0.0000000000000","EPOCH":"2022-01-01T07:30:18.353952","TLE_LINE2":"2 46383  53.0567  37.7723 0001357 100.1176 259.9966 15.06394226 73940","MEAN_ANOMALY":"259.9966","NORAD_CAT_ID":"46383","ARG_OF_PERICENTER":"100.1176","GP_ID":"192868414","CENTER_NAME":"EARTH","RCS_SIZE":"LARGE","ELEMENT_SET_NO":"999","INCLINATION":"53.0567","REF_FRAME":"TEME","MEAN_MOTION":"15.06394226","TIME_SYSTEM":"UTC","BSTAR":"-0.00002671400000","PERIOD":"95.593"}];
